{
  "type": "FeatureCollection",
  "features": [
    {
      "type": "Feature",
      "properties": {
        "norad_id": 66628,
        "name": "STARLINK-35862",
        "group": "last-30-days",
        "lat": -45.94593930711284,
        "lon": 158.63288370745468,
        "alt_km": 364.18543185780436,
        "timestamp": "2025-12-08T03:50:05.784780+00:00",
        "meta_object_name": "STARLINK-35862",
        "meta_object_id": "2025-271M",
        "meta_epoch": "2025-12-07T06:00:04.999968",
        "meta_mean_motion": 15.73604308,
        "meta_eccentricity": 9.034e-05,
        "meta_inclination": 53.1578,
        "meta_ra_of_asc_node": 213.9335,
        "meta_arg_of_pericenter": 64.2046,
        "meta_mean_anomaly": 121.5804,
        "meta_ephemeris_type": 0,
        "meta_classification_type": "U",
        "meta_norad_cat_id": 66628,
        "meta_element_set_no": 999,
        "meta_rev_at_epoch": 336,
        "meta_bstar": -0.015504355,
        "meta_mean_motion_dot": -0.01921379,
        "meta_mean_motion_ddot": 0,
        "tle_line1": "1 66628U 25271M   25341.25005787 -.01921379  00000+0 -15504-1 0  9993",
        "tle_line2": "2 66628  53.1578 213.9335 0000903  64.2046 121.5804 15.73604308  3369"
      },
      "geometry": {
        "type": "Point",
        "coordinates": [
          158.63288370745468,
          -45.94593930711284
        ]
      }
    },
    {
      "type": "Feature",
      "properties": {
        "norad_id": 66629,
        "name": "STARLINK-35956",
        "group": "last-30-days",
        "lat": -44.950663275801475,
        "lon": 160.9710480679927,
        "alt_km": 364.4020379446956,
        "timestamp": "2025-12-08T03:50:05.784790+00:00",
        "meta_object_name": "STARLINK-35956",
        "meta_object_id": "2025-271N",
        "meta_epoch": "2025-12-07T06:00:04.999968",
        "meta_mean_motion": 15.73601072,
        "meta_eccentricity": 0.00010361,
        "meta_inclination": 53.1579,
        "meta_ra_of_asc_node": 213.9301,
        "meta_arg_of_pericenter": 84.4207,
        "meta_mean_anomaly": 103.285,
        "meta_ephemeris_type": 0,
        "meta_classification_type": "U",
        "meta_norad_cat_id": 66629,
        "meta_element_set_no": 999,
        "meta_rev_at_epoch": 336,
        "meta_bstar": -0.015476905,
        "meta_mean_motion_dot": -0.01918326,
        "meta_mean_motion_ddot": 0,
        "tle_line1": "1 66629U 25271N   25341.25005787 -.01918326  00000+0 -15477-1 0  9991",
        "tle_line2": "2 66629  53.1579 213.9301 0001036  84.4207 103.2850 15.73601072  3368"
      },
      "geometry": {
        "type": "Point",
        "coordinates": [
          160.9710480679927,
          -44.950663275801475
        ]
      }
    },
    {
      "type": "Feature",
      "properties": {
        "norad_id": 66630,
        "name": "STARLINK-35949",
        "group": "last-30-days",
        "lat": -43.9088279733125,
        "lon": 163.2269223317243,
        "alt_km": 364.34944957611424,
        "timestamp": "2025-12-08T03:50:05.784801+00:00",
        "meta_object_name": "STARLINK-35949",
        "meta_object_id": "2025-271P",
        "meta_epoch": "2025-12-07T06:00:04.999968",
        "meta_mean_motion": 15.73597067,
        "meta_eccentricity": 0.00010074,
        "meta_inclination": 53.158,
        "meta_ra_of_asc_node": 213.9253,
        "meta_arg_of_pericenter": 98.7642,
        "meta_mean_anomaly": 90.857,
        "meta_ephemeris_type": 0,
        "meta_classification_type": "U",
        "meta_norad_cat_id": 66630,
        "meta_element_set_no": 999,
        "meta_rev_at_epoch": 336,
        "meta_bstar": -0.015425305,
        "meta_mean_motion_dot": -0.01912492,
        "meta_mean_motion_ddot": 0,
        "tle_line1": "1 66630U 25271P   25341.25005787 -.01912492  00000+0 -15425-1 0  9994",
        "tle_line2": "2 66630  53.1580 213.9253 0001007  98.7642  90.8570 15.73597067  3365"
      },
      "geometry": {
        "type": "Point",
        "coordinates": [
          163.2269223317243,
          -43.9088279733125
        ]
      }
    },
    {
      "type": "Feature",
      "properties": {
        "norad_id": 66631,
        "name": "STARLINK-35965",
        "group": "last-30-days",
        "lat": -42.84113667630121,
        "lon": 165.37153906080715,
        "alt_km": 364.2768264794804,
        "timestamp": "2025-12-08T03:50:05.784813+00:00",
        "meta_object_name": "STARLINK-35965",
        "meta_object_id": "2025-271Q",
        "meta_epoch": "2025-12-07T06:00:04.999968",
        "meta_mean_motion": 15.73603366,
        "meta_eccentricity": 0.00011067,
        "meta_inclination": 53.1581,
        "meta_ra_of_asc_node": 213.9218,
        "meta_arg_of_pericenter": 64.7333,
        "meta_mean_anomaly": 126.8054,
        "meta_ephemeris_type": 0,
        "meta_classification_type": "U",
        "meta_norad_cat_id": 66631,
        "meta_element_set_no": 999,
        "meta_rev_at_epoch": 336,
        "meta_bstar": -0.015523433,
        "meta_mean_motion_dot": -0.01923528,
        "meta_mean_motion_ddot": 0,
        "tle_line1": "1 66631U 25271Q   25341.25005787 -.01923528  00000+0 -15523-1 0  9996",
        "tle_line2": "2 66631  53.1581 213.9218 0001106  64.7333 126.8054 15.73603366  3365"
      },
      "geometry": {
        "type": "Point",
        "coordinates": [
          165.37153906080715,
          -42.84113667630121
        ]
      }
    },
    {
      "type": "Feature",
      "properties": {
        "norad_id": 66632,
        "name": "STARLINK-35973",
        "group": "last-30-days",
        "lat": -41.71878162142113,
        "lon": 167.46898675675814,
        "alt_km": 363.9836691788987,
        "timestamp": "2025-12-08T03:50:05.784823+00:00",
        "meta_object_name": "STARLINK-35973",
        "meta_object_id": "2025-271R",
        "meta_epoch": "2025-12-07T06:00:04.999968",
        "meta_mean_motion": 15.73608143,
        "meta_eccentricity": 8.988e-05,
        "meta_inclination": 53.1578,
        "meta_ra_of_asc_node": 213.9175,
        "meta_arg_of_pericenter": 64.4521,
        "meta_mean_anomaly": 128.9971,
        "meta_ephemeris_type": 0,
        "meta_classification_type": "U",
        "meta_norad_cat_id": 66632,
        "meta_element_set_no": 999,
        "meta_rev_at_epoch": 330,
        "meta_bstar": -0.015534724,
        "meta_mean_motion_dot": -0.01924897,
        "meta_mean_motion_ddot": 0,
        "tle_line1": "1 66632U 25271R   25341.25005787 -.01924897  00000+0 -15535-1 0  9990",
        "tle_line2": "2 66632  53.1578 213.9175 0000898  64.4521 128.9971 15.73608143  3300"
      },
      "geometry": {
        "type": "Point",
        "coordinates": [
          167.46898675675814,
          -41.71878162142113
        ]
      }
    },
    {
      "type": "Feature",
      "properties": {
        "norad_id": 66633,
        "name": "STARLINK-35948",
        "group": "last-30-days",
        "lat": -40.554834053712376,
        "lon": 169.50106588086163,
        "alt_km": 364.1798365418199,
        "timestamp": "2025-12-08T03:50:05.784833+00:00",
        "meta_object_name": "STARLINK-35948",
        "meta_object_id": "2025-271S",
        "meta_epoch": "2025-12-07T06:00:04.999968",
        "meta_mean_motion": 15.73598272,
        "meta_eccentricity": 0.00010447,
        "meta_inclination": 53.1576,
        "meta_ra_of_asc_node": 213.9131,
        "meta_arg_of_pericenter": 88.2528,
        "meta_mean_anomaly": 107.1207,
        "meta_ephemeris_type": 0,
        "meta_classification_type": "U",
        "meta_norad_cat_id": 66633,
        "meta_element_set_no": 999,
        "meta_rev_at_epoch": 336,
        "meta_bstar": -0.015451854,
        "meta_mean_motion_dot": -0.01915453,
        "meta_mean_motion_ddot": 0,
        "tle_line1": "1 66633U 25271S   25341.25005787 -.01915453  00000+0 -15452-1 0  9997",
        "tle_line2": "2 66633  53.1576 213.9131 0001044  88.2528 107.1207 15.73598272  3364"
      },
      "geometry": {
        "type": "Point",
        "coordinates": [
          169.50106588086163,
          -40.554834053712376
        ]
      }
    },
    {
      "type": "Feature",
      "properties": {
        "norad_id": 66634,
        "name": "STARLINK-35967",
        "group": "last-30-days",
        "lat": -39.364204833792115,
        "lon": 171.45064271694494,
        "alt_km": 364.22944053669653,
        "timestamp": "2025-12-08T03:50:05.784845+00:00",
        "meta_object_name": "STARLINK-35967",
        "meta_object_id": "2025-271T",
        "meta_epoch": "2025-12-07T06:00:04.999968",
        "meta_mean_motion": 15.73598197,
        "meta_eccentricity": 0.00011019,
        "meta_inclination": 53.1576,
        "meta_ra_of_asc_node": 213.9089,
        "meta_arg_of_pericenter": 109.9091,
        "meta_mean_anomaly": 87.3802,
        "meta_ephemeris_type": 0,
        "meta_classification_type": "U",
        "meta_norad_cat_id": 66634,
        "meta_element_set_no": 999,
        "meta_rev_at_epoch": 329,
        "meta_bstar": -0.015454746,
        "meta_mean_motion_dot": -0.01915807,
        "meta_mean_motion_ddot": 0,
        "tle_line1": "1 66634U 25271T   25341.25005787 -.01915807  00000+0 -15455-1 0  9994",
        "tle_line2": "2 66634  53.1576 213.9089 0001101 109.9091  87.3802 15.73598197  3295"
      },
      "geometry": {
        "type": "Point",
        "coordinates": [
          171.45064271694494,
          -39.364204833792115
        ]
      }
    }
  ]
}